{"type": "FeatureCollection", "features": [ {"type": "Feature", "properties": {"norad_id": 35705, "name": "COSMOS 2251 DEB", "group": "cosmos-2251-debris", "lat": -22.523108559972318, "lon": 117.13122040060118, "alt_km": 659.712453489271, "timestamp": "2025-12-18T23:35:49.459757+00:00", "meta": {"OBJECT_NAME": "COSMOS 2251 DEB", "OBJECT_ID": "1993-036AQA", "EPOCH": "2025-12-18T02:30:16.850016", "MEAN_MOTION": 14.7240967, "ECCENTRICITY": 0.0033127, "INCLINATION": 74.2733, "RA_OF_ASC_NODE": 125.5265, "ARG_OF_PERICENTER": 72.0768, "MEAN_ANOMALY": 288.4013, "EPHEMERIS_TYPE": 0, "CLASSIFICATION_TYPE": "U", "NORAD_CAT_ID": 35705, "ELEMENT_SET_NO": 999, "REV_AT_EPOCH": 86005, "BSTAR": 0.0020233771, "MEAN_MOTION_DOT": 0.00012927, "MEAN_MOTION_DDOT": 0}, "tle": {"line1": "1 35705U 93036AQA 25352.10436169  .00012927  00000+0  20234-2 0  9991", "line2": "2 35705  74.2733 125.5265 0033127  72.0768 288.4013 14.72409670860055"}}, "geometry": {"type": "Point", "coordinates": [117.13122040060118, -22.523108559972318]}}, {"type": "Feature", "properties": {"norad_id": 35706, "name": "COSMOS 2251 DEB", "group": "cosmos-2251-debris", "lat": 3.215480475979051, "lon": 53.42465715895653, "alt_km": 1041.3557849967847, "timestamp": "2025-12-18T23:35:49.459767+00:00", "meta": {"OBJECT_NAME": "COSMOS 2251 DEB", "OBJECT_ID": "1993-036AQB", "EPOCH": "2025-12-18T11:16:36.033600", "MEAN_MOTION": 13.65935388, "ECCENTRICITY": 0.03401259, "INCLINATION": 73.8894, "RA_OF_ASC_NODE": 53.3421, "ARG_OF_PERICENTER": 102.0554, "MEAN_ANOMALY": 261.8887, "EPHEMERIS_TYPE": 0, "CLASSIFICATION_TYPE": "U", "NORAD_CAT_ID": 35706, "ELEMENT_SET_NO": 999, "REV_AT_EPOCH": 62140, "BSTAR": 0.00059519362, "MEAN_MOTION_DOT": 7.07e-06, "MEAN_MOTION_DDOT": 0}, "tle": {"line1": "1 35706U 93036AQB 25352.46986150  .00000707  00000+0  59519-3 0  9993", "line2": "2 35706  73.8894  53.3421 0340125 102.0554 261.8887 13.65935388621406"}}, "geometry": {"type": "Point", "coordinates": [53.42465715895653, 3.215480475979051]}}, {"type": "Feature", "properties": {"norad_id": 35711, "name": "COSMOS 2251 DEB", "group": "cosmos-2251-debris", "lat": 57.05601515024365, "lon": 2.2835595588447424, "alt_km": 734.6299016894782, "timestamp": "2025-12-18T23:35:49.459777+00:00", "meta": {"OBJECT_NAME": "COSMOS 2251 DEB", "OBJECT_ID": "1993-036AQG", "EPOCH": "2025-12-18T08:17:23.762688", "MEAN_MOTION": 14.63815796, "ECCENTRICITY": 0.00854507, "INCLINATION": 74.0458, "RA_OF_ASC_NODE": 209.7036, "ARG_OF_PERICENTER": 309.5008, "MEAN_ANOMALY": 49.8625, "EPHEMERIS_TYPE": 0, "CLASSIFICATION_TYPE": "U", "NORAD_CAT_ID": 35711, "ELEMENT_SET_NO": 999, "REV_AT_EPOCH": 87853, "BSTAR": 0.00017154859, "MEAN_MOTION_DOT": 9.1e-06, "MEAN_MOTION_DDOT": 0}, "tle": {"line1": "1 35711U 93036AQG 25352.34541392  .00000910  00000+0  17155-3 0  9997", "line2": "2 35711  74.0458 209.7036 0085450 309.5008  49.8625 14.63815796878536"}}, "geometry": {"type": "Point", "coordinates": [2.2835595588447424, 57.05601515024365]}}, {"type": "Feature", "properties": {"norad_id": 35716, "name": "COSMOS 2251 DEB", "group": "cosmos-2251-debris", "lat": 59.659534593982585, "lon": -27.116211208304524, "alt_km": 691.0497468902768, "timestamp": "2025-12-18T23:35:49.459787+00:00", "meta": {"OBJECT_NAME": "COSMOS 2251 DEB", "OBJECT_ID": "1993-036AQM", "EPOCH": "2025-12-17T19:10:59.620224", "MEAN_MOTION": 14.60091999, "ECCENTRICITY": 0.00889426, "INCLINATION": 73.992, "RA_OF_ASC_NODE": 184.5217, "ARG_OF_PERICENTER": 24.1822, "MEAN_ANOMALY": 350.396, "EPHEMERIS_TYPE": 0, "CLASSIFICATION_TYPE": "U", "NORAD_CAT_ID": 35716, "ELEMENT_SET_NO": 999, "REV_AT_EPOCH": 87701, "BSTAR": 7.2268042e-05, "MEAN_MOTION_DOT": 3.34e-06, "MEAN_MOTION_DDOT": 0}, "tle": {"line1": "1 35716U 93036AQM 25351.79930116  .00000334  00000+0  72268-4 0  9993", "line2": "2 35716  73.9920 184.5217 0088942  24.1822 350.3960 14.60091999877019"}}, "geometry": {"type": "Point", "coordinates": [-27.116211208304524, 59.659534593982585]}}, {"type": "Feature", "properties": {"norad_id": 35717, "name": "COSMOS 2251 DEB", "group": "cosmos-2251-debris", "lat": 56.12822683274638, "lon": 1.0536749918632071, "alt_km": 726.913570261423, "timestamp": "2025-12-18T23:35:49.459798+00:00", "meta": {"OBJECT_NAME": "COSMOS 2251 DEB", "OBJECT_ID": "1993-036AQN", "EPOCH": "2025-12-15T21:36:31.335552", "MEAN_MOTION": 14.38515087, "ECCENTRICITY": 0.00772191, "INCLINATION": 74.1598, "RA_OF_ASC_NODE": 211.7132, "ARG_OF_PERICENTER": 70.2705, "MEAN_ANOMALY": 290.6758, "EPHEMERIS_TYPE": 0, "CLASSIFICATION_TYPE": "U", "NORAD_CAT_ID": 35717, "ELEMENT_SET_NO": 999, "REV_AT_EPOCH": 74145, "BSTAR": 0.0007891897, "MEAN_MOTION_DOT": 2.473e-05, "MEAN_MOTION_DDOT": 0}, "tle": {"line1": "1 35717U 93036AQN 25349.90036268  .00002473  00000+0  78919-3 0  9993", "line2": "2 35717  74.1598 211.7132 0077219  70.2705 290.6758 14.38515087741453"}}, "geometry": {"type": "Point", "coordinates": [1.0536749918632071, 56.12822683274638]}}, {"type": "Feature", "properties": {"norad_id": 35718, "name": "COSMOS 2251 DEB", "group": "cosmos-2251-debris", "lat": -1.3857774239710186, "lon": -61.71460485365731, "alt_km": 660.7479542772899, "timestamp": "2025-12-18T23:35:49.459808+00:00", "meta": {"OBJECT_NAME": "COSMOS 2251 DEB", "OBJECT_ID": "1993-036AQP", "EPOCH": "2025-12-17T02:38:13.400448", "MEAN_MOTION": 14.68736376, "ECCENTRICITY": 0.00104417, "INCLINATION": 74.0312, "RA_OF_ASC_NODE": 121.5128, "ARG_OF_PERICENTER": 170.1123, "MEAN_ANOMALY": 190.0255, "EPHEMERIS_TYPE": 0, "CLASSIFICATION_TYPE": "U", "NORAD_CAT_ID": 35718, "ELEMENT_SET_NO": 999, "REV_AT_EPOCH": 65904, "BSTAR": 0.0013106326, "MEAN_MOTION_DOT": 7.622e-05, "MEAN_MOTION_DDOT": 0}, "tle": {"line1": "1 35718U 93036AQP 25351.10987732  .00007622  00000+0  13106-2 0  9997", "line2": "2 35718  74.0312 121.5128 0010441 170.1123 190.0255 14.68736376659045"}}, "geometry": {"type": "Point", "coordinates": [-61.71460485365731, -1.3857774239710186]}}, {"type": "Feature", "properties": {"norad_id": 35721, "name": "COSMOS 2251 DEB", "group": "cosmos-2251-debris", "lat": 27.612284732971375, "lon": -22.41347659382792, "alt_km": 873.8899198735744, "timestamp": "2025-12-18T23:35:49.459819+00:00", "meta": {"OBJECT_NAME": "COSMOS 2251 DEB", "OBJECT_ID": "1993-036AQS", "EPOCH": "2025-12-09T19:36:39.465216", "MEAN_MOTION": 14.34317214, "ECCENTRICITY": 0.01465875, "INCLINATION": 73.9489, "RA_OF_ASC_NODE": 183.1196, "ARG_OF_PERICENTER": 330.1589, "MEAN_ANOMALY": 29.126, "EPHEMERIS_TYPE": 0, "CLASSIFICATION_TYPE": "U", "NORAD_CAT_ID": 35721, "ELEMENT_SET_NO": 999, "REV_AT_EPOCH": 57747, "BSTAR": 0.0018396061, "MEAN_MOTION_DOT": 5.808e-05, "MEAN_MOTION_DDOT": 0}, "tle": {"line1": "1 35721U 93036AQS 25343.81712344  .00005808  00000+0  18396-2 0  9995", "line2": "2 35721  73.9489 183.1196 0146587 330.1589  29.1260 14.34317214577479"}}, "geometry": {"type": "Point", "coordinates": [-22.41347659382792, 27.612284732971375]}}, {"type": "Feature", "properties": {"norad_id": 35724, "name": "COSMOS 2251 DEB", "group": "cosmos-2251-debris", "lat": -73.94439477085518, "lon": -165.01787592207114, "alt_km": 747.4559636491495, "timestamp": "2025-12-18T23:35:49.459828+00:00", "meta": {"OBJECT_NAME": "COSMOS 2251 DEB", "OBJECT_ID": "1993-036AQV", "EPOCH": "2025-12-18T02:36:52.242336", "MEAN_MOTION": 14.58211099, "ECCENTRICITY": 0.00589944, "INCLINATION": 74.0328, "RA_OF_ASC_NODE": 292.4608, "ARG_OF_PERICENTER": 84.5216, "MEAN_ANOMALY": 276.2674, "EPHEMERIS_TYPE": 0, "CLASSIFICATION_TYPE": "U", "NORAD_CAT_ID": 35724, "ELEMENT_SET_NO": 999, "REV_AT_EPOCH": 87607, "BSTAR": 0.00021824888, "MEAN_MOTION_DOT": 1.001e-05, "MEAN_MOTION_DDOT": 0}, "tle": {"line1": "1 35724U 93036AQV 25352.10893799  .00001001  00000+0  21825-3 0  9997", "line2": "2 35724  74.0328 292.4608 0058994  84.5216 276.2674 14.58211099876071"}}, "geometry": {"type": "Point", "coordinates": [-165.01787592207114, -73.94439477085518]}}, {"type": "Feature", "properties": {"norad_id": 35759, "name": "COSMOS 2251 DEB", "group": "cosmos-2251-debris", "lat": -73.06697063957034, "lon": 133.95907529044732, "alt_km": 645.6166559797211, "timestamp": "2025-12-18T23:35:49.459839+00:00", "meta": {"OBJECT_NAME": "COSMOS 2251 DEB", "OBJECT_ID": "1993-036ARD", "EPOCH": "2025-12-17T08:38:24.236736", "MEAN_MOTION": 14.6490617, "ECCENTRICITY": 0.00772003, "INCLINATION": 74.0368, "RA_OF_ASC_NODE": 207.1613, "ARG_OF_PERICENTER": 324.2826, "MEAN_ANOMALY": 35.319, "EPHEMERIS_TYPE": 0, "CLASSIFICATION_TYPE": "U", "NORAD_CAT_ID": 35759, "ELEMENT_SET_NO": 999, "REV_AT_EPOCH": 66203, "BSTAR": 0.00021011522, "MEAN_MOTION_DOT": 1.14e-05, "MEAN_MOTION_DDOT": 0}, "tle": {"line1": "1 35759U 93036ARD 25351.36000274  .00001140  00000+0  21012-3 0  9992", "line2": "2 35759  74.0368 207.1613 0077200 324.2826  35.3190 14.64906170662038"}}, "geometry": {"type": "Point", "coordinates": [133.95907529044732, -73.06697063957034]}}, {"type": "Feature", "properties": {"norad_id": 35771, "name": "COSMOS 2251 DEB", "group": "cosmos-2251-debris", "lat": -28.728401976747772, "lon": 128.3051721768023, "alt_km": 704.5961168083068, "timestamp": "2025-12-18T23:35:49.459849+00:00", "meta": {"OBJECT_NAME": "COSMOS 2251 DEB", "OBJECT_ID": "1993-036ARR", "EPOCH": "2025-12-15T14:45:16.238592", "MEAN_MOTION": 14.13430046, "ECCENTRICITY": 0.02280549, "INCLINATION": 74.1561, "RA_OF_ASC_NODE": 305.27, "ARG_OF_PERICENTER": 242.9998, "MEAN_ANOMALY": 114.7698, "EPHEMERIS_TYPE": 0, "CLASSIFICATION_TYPE": "U", "NORAD_CAT_ID": 35771, "ELEMENT_SET_NO": 999, "REV_AT_EPOCH": 82901, "BSTAR": 0.0026764238, "MEAN_MOTION_DOT": 6.427e-05, "MEAN_MOTION_DDOT": 0}, "tle": {"line1": "1 35771U 93036ARR 25349.61477128  .00006427  00000+0  26764-2 0  9998", "line2": "2 35771  74.1561 305.2700 0228054 242.9998 114.7698 14.13430046829012"}}, "geometry": {"type": "Point", "coordinates": [128.3051721768023, -28.728401976747772]}}]}